STARLINK-36119          
1 67619U 26020C   26049.03791792  .00240127  00000+0  14320-2 0  9995
2 67619  42.9969 261.6876 0001947 258.7078 101.3573 15.76432021  2984
STARLINK-36607          
1 67620U 26020D   26048.94583094  .00639263  00000+0  27681-2 0  9997
2 67620  42.9966 261.8408 0002739 285.0564  75.0004 15.82415698  2972
STARLINK-36615          
1 67621U 26020E   26050.01969825  .00307854  00000+0  14067-2 0  9991
2 67621  42.9976 255.2671 0001889 257.8287 102.2374 15.82114141  3149
STARLINK-36614          
1 67622U 26020F   26049.98393337  .00129952  00000+0  78726-3 0  9999
2 67622  42.9976 255.8760 0001642 270.6542  89.4139 15.76411350  3138
STARLINK-36600          
1 67623U 26020G   26050.04948407  .00327694  00000+0  19356-2 0  9999
2 67623  42.9970 255.5084 0001659 257.7525 102.3159 15.76400731  3143
STARLINK-36439          
1 67624U 26020H   26050.03853331  .00119613  00000+0  72577-3 0  9995
2 67624  42.9973 255.4197 0002126 249.1230 110.9412 15.76409689  3147
STARLINK-36438          
1 67625U 26020J   26050.04510479  .00314890  00000+0  18642-2 0  9996
2 67625  42.9968 255.4731 0001527 257.8553 102.2145 15.76384750  3142
STARLINK-36436          
1 67626U 26020K   26048.94185021  .00432403  00000+0  19514-2 0  9994
2 67626  42.9968 261.8078 0002173 315.8447  44.2251 15.82057753  2973
STARLINK-36502          
1 67627U 26020L   26050.01583264  .00213511  00000+0  98898-3 0  9997
2 67627  42.9969 255.2379 0001582 312.4813  47.5925 15.82074790  3143
STARLINK-36532          
1 67628U 26020M   26050.01386625  .00288256  00000+0  13220-2 0  9993
2 67628  42.9974 255.2187 0001844 262.9234  97.1428 15.82087004  3145
STARLINK-36367          
1 67629U 26020N   26050.16668981  .00024931  00000+0  15568-3 0  9994
2 67629  42.9984 254.4857 0001853 277.5560 152.8602 15.76358912  4412
STARLINK-36416          
1 67630U 26020P   26050.04291638  .00258491  00000+0  15405-2 0  9993
2 67630  42.9968 255.4546 0001363 280.5947  79.4769 15.76394589  3148
